CCSDS_OMM_VERS = 2.0
CREATION_DATE  = 
ORIGINATOR     = 

OBJECT_NAME    = SL-3 R/B
OBJECT_ID      = 1982-079B
CENTER_NAME    = EARTH
REF_FRAME      = TEME
TIME_SYSTEM    = UTC
MEAN_ELEMENT_THEORY = SGP/SGP4

EPOCH          = 2026-03-08T22:40:50.572992
MEAN_MOTION    = 15.24788601
ECCENTRICITY   = .00250359
INCLINATION    = 81.1482
RA_OF_ASC_NODE = 193.9561
ARG_OF_PERICENTER = 167.3058
MEAN_ANOMALY   = 192.8812

EPHEMERIS_TYPE = 0
CLASSIFICATION_TYPE = U
NORAD_CAT_ID   = 13403
ELEMENT_SET_NO = 999
REV_AT_EPOCH   = 37758
BSTAR          = .37723939E-3
MEAN_MOTION_DOT = .9464E-4
MEAN_MOTION_DDOT = 0

CCSDS_OMM_VERS = 2.0
CREATION_DATE  = 
ORIGINATOR     = 

OBJECT_NAME    = SL-14 R/B
OBJECT_ID      = 1982-092B
CENTER_NAME    = EARTH
REF_FRAME      = TEME
TIME_SYSTEM    = UTC
MEAN_ELEMENT_THEORY = SGP/SGP4

EPOCH          = 2026-03-08T17:05:02.594976
MEAN_MOTION    = 14.86665565
ECCENTRICITY   = .001904
INCLINATION    = 82.5697
RA_OF_ASC_NODE = 142.3141
ARG_OF_PERICENTER = 307.0586
MEAN_ANOMALY   = 170.7103

EPHEMERIS_TYPE = 0
CLASSIFICATION_TYPE = U
NORAD_CAT_ID   = 13553
ELEMENT_SET_NO = 999
REV_AT_EPOCH   = 32878
BSTAR          = .70552744E-4
MEAN_MOTION_DOT = .653E-5
MEAN_MOTION_DDOT = 0

CCSDS_OMM_VERS = 2.0
CREATION_DATE  = 
ORIGINATOR     = 

OBJECT_NAME    = SL-3 R/B
OBJECT_ID      = 1983-010B
CENTER_NAME    = EARTH
REF_FRAME      = TEME
TIME_SYSTEM    = UTC
MEAN_ELEMENT_THEORY = SGP/SGP4

EPOCH          = 2026-03-08T20:31:16.660416
MEAN_MOTION    = 15.46324226
ECCENTRICITY   = .00180581
INCLINATION    = 81.1062
RA_OF_ASC_NODE = 3.2706
ARG_OF_PERICENTER = 53.8739
MEAN_ANOMALY   = 306.4173

EPHEMERIS_TYPE = 0
CLASSIFICATION_TYPE = U
NORAD_CAT_ID   = 13819
ELEMENT_SET_NO = 999
REV_AT_EPOCH   = 35781
BSTAR          = .43441351E-3
MEAN_MOTION_DOT = .21617E-3
MEAN_MOTION_DDOT = 0

CCSDS_OMM_VERS = 2.0
CREATION_DATE  = 
ORIGINATOR     = 

OBJECT_NAME    = SL-3 R/B
OBJECT_ID      = 1983-075B
CENTER_NAME    = EARTH
REF_FRAME      = TEME
TIME_SYSTEM    = UTC
MEAN_ELEMENT_THEORY = SGP/SGP4

EPOCH          = 2026-03-08T23:19:07.526496
MEAN_MOTION    = 15.38399183
ECCENTRICITY   = .00200511
INCLINATION    = 97.6146
RA_OF_ASC_NODE = 72.5215
ARG_OF_PERICENTER = 228.6872
MEAN_ANOMALY   = 131.2648

EPHEMERIS_TYPE = 0
CLASSIFICATION_TYPE = U
NORAD_CAT_ID   = 14208
ELEMENT_SET_NO = 999
REV_AT_EPOCH   = 33004
BSTAR          = .39081951E-3
MEAN_MOTION_DOT = .14823E-3
MEAN_MOTION_DDOT = 0

CCSDS_OMM_VERS = 2.0
CREATION_DATE  = 
ORIGINATOR     = 

OBJECT_NAME    = COSMOS 1536
OBJECT_ID      = 1984-013A
CENTER_NAME    = EARTH
REF_FRAME      = TEME
TIME_SYSTEM    = UTC
MEAN_ELEMENT_THEORY = SGP/SGP4

EPOCH          = 2026-03-08T14:29:09.798432
MEAN_MOTION    = 15.23809497
ECCENTRICITY   = .00125177
INCLINATION    = 82.5426
RA_OF_ASC_NODE = 108.9299
ARG_OF_PERICENTER = 287.8222
MEAN_ANOMALY   = 72.1649

EPHEMERIS_TYPE = 0
CLASSIFICATION_TYPE = U
NORAD_CAT_ID   = 14699
ELEMENT_SET_NO = 999
REV_AT_EPOCH   = 27245
BSTAR          = .36988679E-3
MEAN_MOTION_DOT = .8958E-4
MEAN_MOTION_DDOT = 0

CCSDS_OMM_VERS = 2.0
CREATION_DATE  = 
ORIGINATOR     = 

OBJECT_NAME    = SL-14 R/B
OBJECT_ID      = 1984-027B
CENTER_NAME    = EARTH
REF_FRAME      = TEME
TIME_SYSTEM    = UTC
MEAN_ELEMENT_THEORY = SGP/SGP4

EPOCH          = 2026-03-08T22:51:30.322656
MEAN_MOTION    = 14.85975677
ECCENTRICITY   = .00173859
INCLINATION    = 82.5386
RA_OF_ASC_NODE = 245.7043
ARG_OF_PERICENTER = 340.3846
MEAN_ANOMALY   = 19.6699

EPHEMERIS_TYPE = 0
CLASSIFICATION_TYPE = U
NORAD_CAT_ID   = 14820
ELEMENT_SET_NO = 999
REV_AT_EPOCH   = 24752
BSTAR          = .73903716E-4
MEAN_MOTION_DOT = .671E-5
MEAN_MOTION_DDOT = 0

CCSDS_OMM_VERS = 2.0
CREATION_DATE  = 
ORIGINATOR     = 

OBJECT_NAME    = SL-8 R/B
OBJECT_ID      = 1985-006B
CENTER_NAME    = EARTH
REF_FRAME      = TEME
TIME_SYSTEM    = UTC
MEAN_ELEMENT_THEORY = SGP/SGP4

EPOCH          = 2026-03-08T23:18:23.635296
MEAN_MOTION    = 14.37782139
ECCENTRICITY   = .00184807
INCLINATION    = 74.0433
RA_OF_ASC_NODE = 262.4709
ARG_OF_PERICENTER = 180.4339
MEAN_ANOMALY   = 286.9157

EPHEMERIS_TYPE = 0
CLASSIFICATION_TYPE = U
NORAD_CAT_ID   = 15483
ELEMENT_SET_NO = 999
REV_AT_EPOCH   = 15392
BSTAR          = .11842163E-3
MEAN_MOTION_DOT = .331E-5
MEAN_MOTION_DDOT = 0

CCSDS_OMM_VERS = 2.0
CREATION_DATE  = 
ORIGINATOR     = 

OBJECT_NAME    = SL-12 R/B(2)
OBJECT_ID      = 1985-042D
CENTER_NAME    = EARTH
REF_FRAME      = TEME
TIME_SYSTEM    = UTC
MEAN_ELEMENT_THEORY = SGP/SGP4

EPOCH          = 2026-03-08T19:14:01.897440
MEAN_MOTION    = 14.21982209
ECCENTRICITY   = .00333062
INCLINATION    = 71.1063
RA_OF_ASC_NODE = 89.6057
ARG_OF_PERICENTER = 129.6251
MEAN_ANOMALY   = 42.6992

EPHEMERIS_TYPE = 0
CLASSIFICATION_TYPE = U
NORAD_CAT_ID   = 15772
ELEMENT_SET_NO = 999
REV_AT_EPOCH   = 11426
BSTAR          = .37790658E-4
MEAN_MOTION_DOT = .36E-6
MEAN_MOTION_DDOT = 0

CCSDS_OMM_VERS = 2.0
CREATION_DATE  = 
ORIGINATOR     = 

OBJECT_NAME    = SL-14 R/B
OBJECT_ID      = 1985-069B
CENTER_NAME    = EARTH
REF_FRAME      = TEME
TIME_SYSTEM    = UTC
MEAN_ELEMENT_THEORY = SGP/SGP4

EPOCH          = 2026-03-08T22:29:54.964608
MEAN_MOTION    = 14.86432152
ECCENTRICITY   = .00184017
INCLINATION    = 82.5284
RA_OF_ASC_NODE = 25.6401
ARG_OF_PERICENTER = 190.2100
MEAN_ANOMALY   = 169.8746

EPHEMERIS_TYPE = 0
CLASSIFICATION_TYPE = U
NORAD_CAT_ID   = 15945
ELEMENT_SET_NO = 999
REV_AT_EPOCH   = 17272
BSTAR          = .80236201E-4
MEAN_MOTION_DOT = .735E-5
MEAN_MOTION_DDOT = 0

CCSDS_OMM_VERS = 2.0
CREATION_DATE  = 
ORIGINATOR     = 

OBJECT_NAME    = SL-16 R/B
OBJECT_ID      = 1985-097B
CENTER_NAME    = EARTH
REF_FRAME      = TEME
TIME_SYSTEM    = UTC
MEAN_ELEMENT_THEORY = SGP/SGP4

EPOCH          = 2026-03-08T15:57:18.676800
MEAN_MOTION    = 14.16599115
ECCENTRICITY   = .00099355
INCLINATION    = 71.0031
RA_OF_ASC_NODE = 142.7122
ARG_OF_PERICENTER = 260.9745
MEAN_ANOMALY   = 261.2623

EPHEMERIS_TYPE = 0
CLASSIFICATION_TYPE = U
NORAD_CAT_ID   = 16182
ELEMENT_SET_NO = 999
REV_AT_EPOCH   = 8708
BSTAR          = -.66859859E-4
MEAN_MOTION_DOT = -.181E-5
MEAN_MOTION_DDOT = 0

CCSDS_OMM_VERS = 2.0
CREATION_DATE  = 
ORIGINATOR     = 

OBJECT_NAME    = SL-14 R/B
OBJECT_ID      = 1986-006B
CENTER_NAME    = EARTH
REF_FRAME      = TEME
TIME_SYSTEM    = UTC
MEAN_ELEMENT_THEORY = SGP/SGP4

EPOCH          = 2026-03-08T21:57:09.942624
MEAN_MOTION    = 14.86813778
ECCENTRICITY   = .00750573
INCLINATION    = 82.5233
RA_OF_ASC_NODE = 260.4668
ARG_OF_PERICENTER = 275.4183
MEAN_ANOMALY   = 83.8474

EPHEMERIS_TYPE = 0
CLASSIFICATION_TYPE = U
NORAD_CAT_ID   = 16496
ELEMENT_SET_NO = 999
REV_AT_EPOCH   = 14909
BSTAR          = .85547375E-4
MEAN_MOTION_DOT = .827E-5
MEAN_MOTION_DDOT = 0

CCSDS_OMM_VERS = 2.0
CREATION_DATE  = 
ORIGINATOR     = 

OBJECT_NAME    = COSMOS 1743
OBJECT_ID      = 1986-034A
CENTER_NAME    = EARTH
REF_FRAME      = TEME
TIME_SYSTEM    = UTC
MEAN_ELEMENT_THEORY = SGP/SGP4

EPOCH          = 2026-03-09T00:00:00.477792
MEAN_MOTION    = 15.58496631
ECCENTRICITY   = .00016761
INCLINATION    = 82.5296
RA_OF_ASC_NODE = 74.5547
ARG_OF_PERICENTER = 300.6943
MEAN_ANOMALY   = 59.4148

EPHEMERIS_TYPE = 0
CLASSIFICATION_TYPE = U
NORAD_CAT_ID   = 16719
ELEMENT_SET_NO = 999
REV_AT_EPOCH   = 18014
BSTAR          = .50265435E-3
MEAN_MOTION_DOT = .38498E-3
MEAN_MOTION_DDOT = 0

